[{"OBJECT_NAME":"STARLINK-11230 [DTC]","OBJECT_ID":"2024-164D","EPOCH":"2025-09-04T22:04:14.953728","MEAN_MOTION":15.69739456,"ECCENTRICITY":0.00010417,"INCLINATION":53.1589,"RA_OF_ASC_NODE":146.9003,"ARG_OF_PERICENTER":92.6935,"MEAN_ANOMALY":267.4203,"EPHEMERIS_TYPE":0,"CLASSIFICATION_TYPE":"U","NORAD_CAT_ID":61053,"ELEMENT_SET_NO":999,"REV_AT_EPOCH":5624,"BSTAR":3.1239911e-5,"MEAN_MOTION_DOT":3.202e-5,"MEAN_MOTION_DDOT":0},{"OBJECT_NAME":"STARLINK-11294 [DTC]","OBJECT_ID":"2024-164E","EPOCH":"2025-09-04T21:57:12.183840","MEAN_MOTION":15.6972507,"ECCENTRICITY":9.506e-5,"INCLINATION":53.1584,"RA_OF_ASC_NODE":146.8672,"ARG_OF_PERICENTER":103.6804,"MEAN_ANOMALY":256.432,"EPHEMERIS_TYPE":0,"CLASSIFICATION_TYPE":"U","NORAD_CAT_ID":61054,"ELEMENT_SET_NO":999,"REV_AT_EPOCH":5624,"BSTAR":7.25929e-6,"MEAN_MOTION_DOT":2.92e-6,"MEAN_MOTION_DDOT":0},{"OBJECT_NAME":"STARLINK-11268 [DTC]","OBJECT_ID":"2024-164F","EPOCH":"2025-09-04T21:50:08.546496","MEAN_MOTION":15.69726975,"ECCENTRICITY":9.426e-5,"INCLINATION":53.1572,"RA_OF_ASC_NODE":146.8339,"ARG_OF_PERICENTER":109.8408,"MEAN_ANOMALY":250.2712,"EPHEMERIS_TYPE":0,"CLASSIFICATION_TYPE":"U","NORAD_CAT_ID":61055,"ELEMENT_SET_NO":999,"REV_AT_EPOCH":5624,"BSTAR":3.7513841e-5,"MEAN_MOTION_DOT":3.962e-5,"MEAN_MOTION_DDOT":0},{"OBJECT_NAME":"STARLINK-11156 [DTC]","OBJECT_ID":"2024-164G","EPOCH":"2025-09-04T21:43:04.177344","MEAN_MOTION":15.69732065,"ECCENTRICITY":8.766e-5,"INCLINATION":53.1589,"RA_OF_ASC_NODE":146.8021,"ARG_OF_PERICENTER":74.9749,"MEAN_ANOMALY":285.1365,"EPHEMERIS_TYPE":0,"CLASSIFICATION_TYPE":"U","NORAD_CAT_ID":61056,"ELEMENT_SET_NO":999,"REV_AT_EPOCH":5624,"BSTAR":1.3834951e-5,"MEAN_MOTION_DOT":1.089e-5,"MEAN_MOTION_DDOT":0},{"OBJECT_NAME":"STARLINK-11231 [DTC]","OBJECT_ID":"2024-164H","EPOCH":"2025-09-04T21:36:08.684928","MEAN_MOTION":15.69738609,"ECCENTRICITY":9.173e-5,"INCLINATION":53.1575,"RA_OF_ASC_NODE":147.5034,"ARG_OF_PERICENTER":77.3419,"MEAN_ANOMALY":282.7701,"EPHEMERIS_TYPE":0,"CLASSIFICATION_TYPE":"U","NORAD_CAT_ID":61057,"ELEMENT_SET_NO":999,"REV_AT_EPOCH":5623,"BSTAR":2.133387e-5,"MEAN_MOTION_DOT":2.0e-5,"MEAN_MOTION_DDOT":0},{"OBJECT_NAME":"STARLINK-11299 [DTC]","OBJECT_ID":"2024-164J","EPOCH":"2025-09-04T21:29:04.673472","MEAN_MOTION":15.69740067,"ECCENTRICITY":9.89e-5,"INCLINATION":53.1591,"RA_OF_ASC_NODE":147.4706,"ARG_OF_PERICENTER":71.6958,"MEAN_ANOMALY":288.4167,"EPHEMERIS_TYPE":0,"CLASSIFICATION_TYPE":"U","NORAD_CAT_ID":61058,"ELEMENT_SET_NO":999,"REV_AT_EPOCH":5623,"BSTAR":2.1855646e-5,"MEAN_MOTION_DOT":2.063e-5,"MEAN_MOTION_DDOT":0},{"OBJECT_NAME":"STARLINK-11154 [DTC]","OBJECT_ID":"2024-164K","EPOCH":"2025-09-04T21:22:01.225344","MEAN_MOTION":15.69736398,"ECCENTRICITY":8.985e-5,"INCLINATION":53.1582,"RA_OF_ASC_NODE":147.4377,"ARG_OF_PERICENTER":88.9714,"MEAN_ANOMALY":271.1407,"EPHEMERIS_TYPE":0,"CLASSIFICATION_TYPE":"U","NORAD_CAT_ID":61059,"ELEMENT_SET_NO":999,"REV_AT_EPOCH":5623,"BSTAR":1.8780706e-5,"MEAN_MOTION_DOT":1.69e-5,"MEAN_MOTION_DDOT":0},{"OBJECT_NAME":"STARLINK-11297 [DTC]","OBJECT_ID":"2024-164L","EPOCH":"2025-09-04T22:46:37.290144","MEAN_MOTION":15.69759436,"ECCENTRICITY":0.00010726,"INCLINATION":53.1593,"RA_OF_ASC_NODE":147.0905,"ARG_OF_PERICENTER":102.3674,"MEAN_ANOMALY":257.7464,"EPHEMERIS_TYPE":0,"CLASSIFICATION_TYPE":"U","NORAD_CAT_ID":61060,"ELEMENT_SET_NO":999,"REV_AT_EPOCH":5624,"BSTAR":4.6557744e-5,"MEAN_MOTION_DOT":5.066e-5,"MEAN_MOTION_DDOT":0},{"OBJECT_NAME":"STARLINK-11233 [DTC]","OBJECT_ID":"2024-164M","EPOCH":"2025-09-04T22:39:33.277824","MEAN_MOTION":15.69757224,"ECCENTRICITY":9.902e-5,"INCLINATION":53.1589,"RA_OF_ASC_NODE":147.0573,"ARG_OF_PERICENTER":106.3569,"MEAN_ANOMALY":253.7558,"EPHEMERIS_TYPE":0,"CLASSIFICATION_TYPE":"U","NORAD_CAT_ID":61061,"ELEMENT_SET_NO":999,"REV_AT_EPOCH":5624,"BSTAR":4.4631508e-5,"MEAN_MOTION_DOT":4.832e-5,"MEAN_MOTION_DDOT":0},{"OBJECT_NAME":"STARLINK-11236 [DTC]","OBJECT_ID":"2024-164N","EPOCH":"2025-09-04T22:32:30.909696","MEAN_MOTION":15.69726407,"ECCENTRICITY":0.0001151,"INCLINATION":53.1587,"RA_OF_ASC_NODE":147.0243,"ARG_OF_PERICENTER":89.9921,"MEAN_ANOMALY":270.1229,"EPHEMERIS_TYPE":0,"CLASSIFICATION_TYPE":"U","NORAD_CAT_ID":61062,"ELEMENT_SET_NO":999,"REV_AT_EPOCH":5624,"BSTAR":3.3084853e-5,"MEAN_MOTION_DOT":3.424e-5,"MEAN_MOTION_DDOT":0},{"OBJECT_NAME":"STARLINK-32350","OBJECT_ID":"2024-164P","EPOCH":"2025-09-04T09:13:52.791456","MEAN_MOTION":15.30236764,"ECCENTRICITY":0.00010271,"INCLINATION":53.1595,"RA_OF_ASC_NODE":236.4706,"ARG_OF_PERICENTER":89.9327,"MEAN_ANOMALY":270.1791,"EPHEMERIS_TYPE":0,"CLASSIFICATION_TYPE":"U","NORAD_CAT_ID":61063,"ELEMENT_SET_NO":999,"REV_AT_EPOCH":5495,"BSTAR":-0.00029319107,"MEAN_MOTION_DOT":-9.042e-5,"MEAN_MOTION_DDOT":0},{"OBJECT_NAME":"STARLINK-32378","OBJECT_ID":"2024-164Q","EPOCH":"2025-09-04T09:18:28.384992","MEAN_MOTION":15.30185267,"ECCENTRICITY":0.0001223,"INCLINATION":53.1606,"RA_OF_ASC_NODE":236.4911,"ARG_OF_PERICENTER":67.827,"MEAN_ANOMALY":292.2861,"EPHEMERIS_TYPE":0,"CLASSIFICATION_TYPE":"U","NORAD_CAT_ID":61064,"ELEMENT_SET_NO":999,"REV_AT_EPOCH":5495,"BSTAR":-5.5331101e-5,"MEAN_MOTION_DOT":-1.997e-5,"MEAN_MOTION_DDOT":0},{"OBJECT_NAME":"STARLINK-32321","OBJECT_ID":"2024-164R","EPOCH":"2025-09-04T09:32:10.099968","MEAN_MOTION":15.30160093,"ECCENTRICITY":0.00013763,"INCLINATION":53.1599,"RA_OF_ASC_NODE":236.5526,"ARG_OF_PERICENTER":84.4303,"MEAN_ANOMALY":275.6855,"EPHEMERIS_TYPE":0,"CLASSIFICATION_TYPE":"U","NORAD_CAT_ID":61065,"ELEMENT_SET_NO":999,"REV_AT_EPOCH":5495,"BSTAR":-0.00013822013,"MEAN_MOTION_DOT":-4.445e-5,"MEAN_MOTION_DDOT":0},{"OBJECT_NAME":"STARLINK-32381","OBJECT_ID":"2024-164S","EPOCH":"2025-09-04T06:39:13.577472","MEAN_MOTION":15.30164297,"ECCENTRICITY":8.806e-5,"INCLINATION":53.1593,"RA_OF_ASC_NODE":237.2195,"ARG_OF_PERICENTER":89.7964,"MEAN_ANOMALY":270.3137,"EPHEMERIS_TYPE":0,"CLASSIFICATION_TYPE":"U","NORAD_CAT_ID":61066,"ELEMENT_SET_NO":999,"REV_AT_EPOCH":5493,"BSTAR":9.9628746e-5,"MEAN_MOTION_DOT":2.59e-5,"MEAN_MOTION_DDOT":0},{"OBJECT_NAME":"STARLINK-32385","OBJECT_ID":"2024-164U","EPOCH":"2025-09-04T06:19:28.919424","MEAN_MOTION":15.30182227,"ECCENTRICITY":9.901e-5,"INCLINATION":53.1594,"RA_OF_ASC_NODE":237.1376,"ARG_OF_PERICENTER":73.1421,"MEAN_ANOMALY":286.9688,"EPHEMERIS_TYPE":0,"CLASSIFICATION_TYPE":"U","NORAD_CAT_ID":61068,"ELEMENT_SET_NO":999,"REV_AT_EPOCH":5493,"BSTAR":-6.9125693e-5,"MEAN_MOTION_DOT":-2.404e-5,"MEAN_MOTION_DDOT":0},{"OBJECT_NAME":"STARLINK-32380","OBJECT_ID":"2024-164V","EPOCH":"2025-09-04T06:14:55.524768","MEAN_MOTION":15.30175708,"ECCENTRICITY":0.0001278,"INCLINATION":53.1605,"RA_OF_ASC_NODE":237.1185,"ARG_OF_PERICENTER":65.5076,"MEAN_ANOMALY":294.6057,"EPHEMERIS_TYPE":0,"CLASSIFICATION_TYPE":"U","NORAD_CAT_ID":61069,"ELEMENT_SET_NO":999,"REV_AT_EPOCH":5493,"BSTAR":9.780617e-6,"MEAN_MOTION_DOT":-7.0e-7,"MEAN_MOTION_DDOT":0},{"OBJECT_NAME":"STARLINK-32375","OBJECT_ID":"2024-164W","EPOCH":"2025-09-04T15:52:54.582240","MEAN_MOTION":15.30174532,"ECCENTRICITY":0.00013212,"INCLINATION":53.1616,"RA_OF_ASC_NODE":235.3537,"ARG_OF_PERICENTER":100.2691,"MEAN_ANOMALY":259.8459,"EPHEMERIS_TYPE":0,"CLASSIFICATION_TYPE":"U","NORAD_CAT_ID":61070,"ELEMENT_SET_NO":999,"REV_AT_EPOCH":5499,"BSTAR":4.278265e-5,"MEAN_MOTION_DOT":9.07e-6,"MEAN_MOTION_DDOT":0},{"OBJECT_NAME":"STARLINK-11209 [DTC]","OBJECT_ID":"2024-171A","EPOCH":"2025-09-04T13:38:19.224384","MEAN_MOTION":15.69731463,"ECCENTRICITY":8.047e-5,"INCLINATION":53.1578,"RA_OF_ASC_NODE":13.9733,"ARG_OF_PERICENTER":31.3045,"MEAN_ANOMALY":328.802,"EPHEMERIS_TYPE":0,"CLASSIFICATION_TYPE":"U","NORAD_CAT_ID":61200,"ELEMENT_SET_NO":999,"REV_AT_EPOCH":5607,"BSTAR":-6.199697e-6,"MEAN_MOTION_DOT":-1.34e-5,"MEAN_MOTION_DDOT":0},{"OBJECT_NAME":"STARLINK-11257 [DTC]","OBJECT_ID":"2024-171B","EPOCH":"2025-09-04T15:02:55.633920","MEAN_MOTION":15.69734363,"ECCENTRICITY":0.00013275,"INCLINATION":53.1592,"RA_OF_ASC_NODE":13.6189,"ARG_OF_PERICENTER":104.3155,"MEAN_ANOMALY":255.801,"EPHEMERIS_TYPE":0,"CLASSIFICATION_TYPE":"U","NORAD_CAT_ID":61201,"ELEMENT_SET_NO":999,"REV_AT_EPOCH":5517,"BSTAR":5.015234e-6,"MEAN_MOTION_DOT":1.9e-7,"MEAN_MOTION_DDOT":0},{"OBJECT_NAME":"STARLINK-11309 [DTC]","OBJECT_ID":"2024-171C","EPOCH":"2025-09-04T14:55:51.985344","MEAN_MOTION":15.6973773,"ECCENTRICITY":5.375e-5,"INCLINATION":53.159,"RA_OF_ASC_NODE":13.5876,"ARG_OF_PERICENTER":77.6102,"MEAN_ANOMALY":282.4976,"EPHEMERIS_TYPE":0,"CLASSIFICATION_TYPE":"U","NORAD_CAT_ID":61202,"ELEMENT_SET_NO":999,"REV_AT_EPOCH":5517,"BSTAR":-3.234039e-6,"MEAN_MOTION_DOT":-9.8e-6,"MEAN_MOTION_DDOT":0},{"OBJECT_NAME":"STARLINK-11292 [DTC]","OBJECT_ID":"2024-171D","EPOCH":"2025-09-03T15:53:33.702432","MEAN_MOTION":15.69707702,"ECCENTRICITY":0.00014196,"INCLINATION":53.1597,"RA_OF_ASC_NODE":18.2644,"ARG_OF_PERICENTER":40.8059,"MEAN_ANOMALY":319.3065,"EPHEMERIS_TYPE":0,"CLASSIFICATION_TYPE":"U","NORAD_CAT_ID":61203,"ELEMENT_SET_NO":999,"REV_AT_EPOCH":5502,"BSTAR":-5.315414e-6,"MEAN_MOTION_DOT":-1.233e-5,"MEAN_MOTION_DDOT":0},{"OBJECT_NAME":"STARLINK-11302 [DTC]","OBJECT_ID":"2024-171E","EPOCH":"2025-09-04T08:35:02.907456","MEAN_MOTION":15.69692581,"ECCENTRICITY":0.0001092,"INCLINATION":53.159,"RA_OF_ASC_NODE":14.7794,"ARG_OF_PERICENTER":70.0219,"MEAN_ANOMALY":290.0917,"EPHEMERIS_TYPE":0,"CLASSIFICATION_TYPE":"U","NORAD_CAT_ID":61204,"ELEMENT_SET_NO":999,"REV_AT_EPOCH":5513,"BSTAR":-3.0302167e-5,"MEAN_MOTION_DOT":-4.255e-5,"MEAN_MOTION_DDOT":0},{"OBJECT_NAME":"STARLINK-11277 [DTC]","OBJECT_ID":"2024-171F","EPOCH":"2025-09-04T12:55:57.086688","MEAN_MOTION":15.697151,"ECCENTRICITY":0.00017645,"INCLINATION":53.1598,"RA_OF_ASC_NODE":13.7708,"ARG_OF_PERICENTER":75.6997,"MEAN_ANOMALY":284.4216,"EPHEMERIS_TYPE":0,"CLASSIFICATION_TYPE":"U","NORAD_CAT_ID":61205,"ELEMENT_SET_NO":999,"REV_AT_EPOCH":5516,"BSTAR":-6.602854e-6,"MEAN_MOTION_DOT":-1.39e-5,"MEAN_MOTION_DDOT":0}]
